{"type": "FeatureCollection", "features": [ {"type": "Feature", "properties": {"norad_id": 39122, "name": "EUTELSAT 117 WEST A", "group": "eutelsat", "lat": -0.008291164643154656, "lon": -176.84365797429732, "alt_km": 35787.72470578012, "timestamp": "2025-12-27T13:34:48.961195+00:00", "meta": {"OBJECT_NAME": "EUTELSAT 117 WEST A", "OBJECT_ID": "2013-012A", "EPOCH": "2025-12-27T05:35:55.354848", "MEAN_MOTION": 1.00270818, "ECCENTRICITY": 0.00028782, "INCLINATION": 0.0142, "RA_OF_ASC_NODE": 335.025, "ARG_OF_PERICENTER": 304.6953, "MEAN_ANOMALY": 143.4263, "EPHEMERIS_TYPE": 0, "CLASSIFICATION_TYPE": "U", "NORAD_CAT_ID": 39122, "ELEMENT_SET_NO": 999, "REV_AT_EPOCH": 4670, "BSTAR": 0, "MEAN_MOTION_DOT": 1e-07, "MEAN_MOTION_DDOT": 0}, "tle": {"line1": "1 39122U 13012A   25361.23327957  .00000010  00000+0  00000+0 0  9998", "line2": "2 39122   0.0142 335.0250 0002878 304.6953 143.4263  1.00270818 46706"}}, "geometry": {"type": "Point", "coordinates": [-176.84365797429732, -0.008291164643154656]}}, {"type": "Feature", "properties": {"norad_id": 39163, "name": "EUTELSAT 7B", "group": "eutelsat", "lat": -0.0785066072406874, "lon": -53.02827198292317, "alt_km": 35766.5434435829, "timestamp": "2025-12-27T13:34:48.961208+00:00", "meta": {"OBJECT_NAME": "EUTELSAT 7B", "OBJECT_ID": "2013-022A", "EPOCH": "2025-12-27T06:13:38.544960", "MEAN_MOTION": 1.0027195, "ECCENTRICITY": 0.00047877, "INCLINATION": 0.0674, "RA_OF_ASC_NODE": 13.757, "ARG_OF_PERICENTER": 308.486, "MEAN_ANOMALY": 234.1547, "EPHEMERIS_TYPE": 0, "CLASSIFICATION_TYPE": "U", "NORAD_CAT_ID": 39163, "ELEMENT_SET_NO": 999, "REV_AT_EPOCH": 4622, "BSTAR": 0, "MEAN_MOTION_DOT": 7e-07, "MEAN_MOTION_DDOT": 0}, "tle": {"line1": "1 39163U 13022A   25361.25947390  .00000070  00000+0  00000+0 0  9991", "line2": "2 39163   0.0674  13.7570 0004787 308.4860 234.1547  1.00271950 46224"}}, "geometry": {"type": "Point", "coordinates": [-53.02827198292317, -0.0785066072406874]}}, {"type": "Feature", "properties": {"norad_id": 39612, "name": "EXPRESS-AT1", "group": "eutelsat", "lat": 0.00875384554478664, "lon": -4.0147112295974505, "alt_km": 35788.88455099016, "timestamp": "2025-12-27T13:34:48.961229+00:00", "meta": {"OBJECT_NAME": "EXPRESS-AT1", "OBJECT_ID": "2014-010A", "EPOCH": "2025-12-27T04:42:15.496416", "MEAN_MOTION": 1.002729, "ECCENTRICITY": 8.928e-05, "INCLINATION": 0.0153, "RA_OF_ASC_NODE": 289.8864, "ARG_OF_PERICENTER": 213.189, "MEAN_ANOMALY": 79.4173, "EPHEMERIS_TYPE": 0, "CLASSIFICATION_TYPE": "U", "NORAD_CAT_ID": 39612, "ELEMENT_SET_NO": 999, "REV_AT_EPOCH": 4309, "BSTAR": 0, "MEAN_MOTION_DOT": 1.01e-06, "MEAN_MOTION_DDOT": 0}, "tle": {"line1": "1 39612U 14010A   25361.19601269  .00000101  00000+0  00000+0 0  9998", "line2": "2 39612   0.0153 289.8864 0000892 213.1890  79.4173  1.00272900 43098"}}, "geometry": {"type": "Point", "coordinates": [-4.0147112295974505, 0.00875384554478664]}}, {"type": "Feature", "properties": {"norad_id": 39613, "name": "EXPRESS-AT2", "group": "eutelsat", "lat": 0.03198681930864756, "lon": 79.85553454345037, "alt_km": 35793.29128938003, "timestamp": "2025-12-27T13:34:48.961249+00:00", "meta": {"OBJECT_NAME": "EXPRESS-AT2", "OBJECT_ID": "2014-010B", "EPOCH": "2025-12-27T06:49:10.839936", "MEAN_MOTION": 1.00270775, "ECCENTRICITY": 0.00017046, "INCLINATION": 0.0178, "RA_OF_ASC_NODE": 328.3157, "ARG_OF_PERICENTER": 308.5849, "MEAN_ANOMALY": 61.2712, "EPHEMERIS_TYPE": 0, "CLASSIFICATION_TYPE": "U", "NORAD_CAT_ID": 39613, "ELEMENT_SET_NO": 999, "REV_AT_EPOCH": 4277, "BSTAR": 0, "MEAN_MOTION_DOT": -2.59e-06, "MEAN_MOTION_DDOT": 0}, "tle": {"line1": "1 39613U 14010B   25361.28415324 -.00000259  00000+0  00000+0 0  9999", "line2": "2 39613   0.0178 328.3157 0001704 308.5849  61.2712  1.00270775 42776"}}, "geometry": {"type": "Point", "coordinates": [79.85553454345037, 0.03198681930864756]}}, {"type": "Feature", "properties": {"norad_id": 39773, "name": "EUTELSAT 3B", "group": "eutelsat", "lat": -0.06311155481747188, "lon": -56.87334920962944, "alt_km": 35779.116526198595, "timestamp": "2025-12-27T13:34:48.961262+00:00", "meta": {"OBJECT_NAME": "EUTELSAT 3B", "OBJECT_ID": "2014-030A", "EPOCH": "2025-12-27T06:13:38.544960", "MEAN_MOTION": 1.00270423, "ECCENTRICITY": 0.00042878, "INCLINATION": 0.06, "RA_OF_ASC_NODE": 354.4554, "ARG_OF_PERICENTER": 242.3493, "MEAN_ANOMALY": 315.6906, "EPHEMERIS_TYPE": 0, "CLASSIFICATION_TYPE": "U", "NORAD_CAT_ID": 39773, "ELEMENT_SET_NO": 999, "REV_AT_EPOCH": 4234, "BSTAR": 0, "MEAN_MOTION_DOT": 4.2e-07, "MEAN_MOTION_DDOT": 0}, "tle": {"line1": "1 39773U 14030A   25361.25947390  .00000042  00000+0  00000+0 0  9997", "line2": "2 39773   0.0600 354.4554 0004287 242.3493 315.6906  1.00270423 42347"}}, "geometry": {"type": "Point", "coordinates": [-56.87334920962944, -0.06311155481747188]}}, {"type": "Feature", "properties": {"norad_id": 40425, "name": "EUTELSAT 115 WEST B", "group": "eutelsat", "lat": 0.0006348864475310839, "lon": -174.9061510574915, "alt_km": 35785.77198640643, "timestamp": "2025-12-27T13:34:48.961275+00:00", "meta": {"OBJECT_NAME": "EUTELSAT 115 WEST B", "OBJECT_ID": "2015-010B", "EPOCH": "2025-12-26T05:44:38.581152", "MEAN_MOTION": 1.00273604, "ECCENTRICITY": 7.8e-06, "INCLINATION": 0.0077, "RA_OF_ASC_NODE": 147.8651, "ARG_OF_PERICENTER": 258.8043, "MEAN_ANOMALY": 19.571, "EPHEMERIS_TYPE": 0, "CLASSIFICATION_TYPE": "U", "NORAD_CAT_ID": 40425, "ELEMENT_SET_NO": 999, "REV_AT_EPOCH": 3965, "BSTAR": 0, "MEAN_MOTION_DOT": -3e-08, "MEAN_MOTION_DDOT": 0}, "tle": {"line1": "1 40425U 15010B   25360.23933543 -.00000003  00000+0  00000+0 0  9992", "line2": "2 40425   0.0077 147.8651 0000078 258.8043  19.5710  1.00273604 39657"}}, "geometry": {"type": "Point", "coordinates": [-174.9061510574915, 0.0006348864475310839]}}, {"type": "Feature", "properties": {"norad_id": 40875, "name": "EUTELSAT 8 WEST B", "group": "eutelsat", "lat": -0.08337870201188857, "lon": -67.99938325355177, "alt_km": 35769.081918569995, "timestamp": "2025-12-27T13:34:48.961287+00:00", "meta": {"OBJECT_NAME": "EUTELSAT 8 WEST B", "OBJECT_ID": "2015-039B", "EPOCH": "2025-12-27T06:06:52.392384", "MEAN_MOTION": 1.00271434, "ECCENTRICITY": 0.00041959, "INCLINATION": 0.0657, "RA_OF_ASC_NODE": 13.5765, "ARG_OF_PERICENTER": 262.8857, "MEAN_ANOMALY": 263.2409, "EPHEMERIS_TYPE": 0, "CLASSIFICATION_TYPE": "U", "NORAD_CAT_ID": 40875, "ELEMENT_SET_NO": 999, "REV_AT_EPOCH": 3793, "BSTAR": 0, "MEAN_MOTION_DOT": -4.3e-07, "MEAN_MOTION_DDOT": 0}, "tle": {"line1": "1 40875U 15039B   25361.25477306 -.00000043  00000+0  00000+0 0  9999", "line2": "2 40875   0.0657  13.5765 0004195 262.8857 263.2409  1.00271434 37938"}}, "geometry": {"type": "Point", "coordinates": [-67.99938325355177, -0.08337870201188857]}}, {"type": "Feature", "properties": {"norad_id": 41310, "name": "EUTELSAT 9B", "group": "eutelsat", "lat": -0.043852985345275534, "lon": -50.99147761738929, "alt_km": 35769.60558571216, "timestamp": "2025-12-27T13:34:48.961299+00:00", "meta": {"OBJECT_NAME": "EUTELSAT 9B", "OBJECT_ID": "2016-005A", "EPOCH": "2025-12-27T06:13:38.544960", "MEAN_MOTION": 1.00270104, "ECCENTRICITY": 0.00047693, "INCLINATION": 0.0298, "RA_OF_ASC_NODE": 51.1117, "ARG_OF_PERICENTER": 224.8876, "MEAN_ANOMALY": 282.3931, "EPHEMERIS_TYPE": 0, "CLASSIFICATION_TYPE": "U", "NORAD_CAT_ID": 41310, "ELEMENT_SET_NO": 999, "REV_AT_EPOCH": 3639, "BSTAR": 0, "MEAN_MOTION_DOT": 8.4e-07, "MEAN_MOTION_DDOT": 0}, "tle": {"line1": "1 41310U 16005A   25361.25947390  .00000084  00000+0  00000+0 0  9997", "line2": "2 41310   0.0298  51.1117 0004769 224.8876 282.3931  1.00270104 36393"}}, "geometry": {"type": "Point", "coordinates": [-50.99147761738929, -0.043852985345275534]}}, {"type": "Feature", "properties": {"norad_id": 41382, "name": "EUTELSAT 65 WEST A", "group": "eutelsat", "lat": -0.05696351748551545, "lon": -125.21137112481203, "alt_km": 35779.12242317608, "timestamp": "2025-12-27T13:34:48.961311+00:00", "meta": {"OBJECT_NAME": "EUTELSAT 65 WEST A", "OBJECT_ID": "2016-014A", "EPOCH": "2025-12-27T06:13:45.229728", "MEAN_MOTION": 1.0027075, "ECCENTRICITY": 0.00024248, "INCLINATION": 0.047, "RA_OF_ASC_NODE": 349.7088, "ARG_OF_PERICENTER": 289.8289, "MEAN_ANOMALY": 204.7118, "EPHEMERIS_TYPE": 0, "CLASSIFICATION_TYPE": "U", "NORAD_CAT_ID": 41382, "ELEMENT_SET_NO": 999, "REV_AT_EPOCH": 3581, "BSTAR": 0, "MEAN_MOTION_DOT": -2.54e-06, "MEAN_MOTION_DDOT": 0}, "tle": {"line1": "1 41382U 16014A   25361.25955127 -.00000254  00000+0  00000+0 0  9993", "line2": "2 41382   0.0470 349.7088 0002424 289.8289 204.7118  1.00270750 35810"}}, "geometry": {"type": "Point", "coordinates": [-125.21137112481203, -0.05696351748551545]}}, {"type": "Feature", "properties": {"norad_id": 41589, "name": "EUTELSAT 117 WEST B", "group": "eutelsat", "lat": 0.00044486171685425804, "lon": -177.0117741863597, "alt_km": 35785.936878228946, "timestamp": "2025-12-27T13:34:48.961322+00:00", "meta": {"OBJECT_NAME": "EUTELSAT 117 WEST B", "OBJECT_ID": "2016-038B", "EPOCH": "2025-12-27T05:35:47.867424", "MEAN_MOTION": 1.00273402, "ECCENTRICITY": 7.7e-06, "INCLINATION": 0.0096, "RA_OF_ASC_NODE": 156.0501, "ARG_OF_PERICENTER": 198.0121, "MEAN_ANOMALY": 68.8491, "EPHEMERIS_TYPE": 0, "CLASSIFICATION_TYPE": "U", "NORAD_CAT_ID": 41589, "ELEMENT_SET_NO": 999, "REV_AT_EPOCH": 3493, "BSTAR": 0, "MEAN_MOTION_DOT": 1.1e-07, "MEAN_MOTION_DDOT": 0}, "tle": {"line1": "1 41589U 16038B   25361.23319291  .00000011  00000+0  00000+0 0  9992", "line2": "2 41589   0.0096 156.0501 0000077 198.0121  68.8491  1.00273402 34932"}}, "geometry": {"type": "Point", "coordinates": [-177.0117741863597, 0.00044486171685425804]}}]}